STARLINK-2544_new
1 18297C 21036X   21326.16374075  .00005869  00000-0  39331-3 0  3263
2 18297  53.0538 283.0131 0001802  52.8540 260.4578 15.06387564    17
STARLINK-2544_old
1 28297C 21036X   21325.15247396  .00004987  00000-0  33406-3 0  3252
2 28297  53.0536 287.5528 0001853  53.8262 172.2683 15.06403259    19
